[{"OBJECT_NAME":"STARLINK-32759","OBJECT_ID":"2025-014S","EPOCH":"2026-03-09T07:01:10.009344","MEAN_MOTION":15.27605558,"ECCENTRICITY":0.00036256,"INCLINATION":42.9997,"RA_OF_ASC_NODE":160.3567,"ARG_OF_PERICENTER":294.6034,"MEAN_ANOMALY":65.444,"EPHEMERIS_TYPE":0,"CLASSIFICATION_TYPE":"U","NORAD_CAT_ID":62751,"ELEMENT_SET_NO":999,"REV_AT_EPOCH":6315,"BSTAR":0.0012869334,"MEAN_MOTION_DOT":0.00035353,"MEAN_MOTION_DDOT":0},{"OBJECT_NAME":"SL-4 R\/B","OBJECT_ID":"2014-021B","EPOCH":"2026-03-09T02:37:43.173408","MEAN_MOTION":15.39160447,"ECCENTRICITY":0.00975963,"INCLINATION":51.6078,"RA_OF_ASC_NODE":340.109,"ARG_OF_PERICENTER":100.9217,"MEAN_ANOMALY":260.2766,"EPHEMERIS_TYPE":0,"CLASSIFICATION_TYPE":"U","NORAD_CAT_ID":39679,"ELEMENT_SET_NO":999,"REV_AT_EPOCH":65618,"BSTAR":0.00043042763,"MEAN_MOTION_DOT":0.00019652,"MEAN_MOTION_DDOT":0}]
